start=new Date('2023-03-31T00:00:00.000Z').valueOf();
sats=[{"APOAPSIS":"540.533","NORAD_CAT_ID":"52699","SEMIMAJOR_AXIS":"6917.838","LAUNCH_DATE":"2022-05-18","GP_ID":"229185400","MEAN_MOTION_DDOT":"0.0000000000000","OBJECT_TYPE":"PAYLOAD","RA_OF_ASC_NODE":"284.6881","MEAN_MOTION":"15.08853839","FILE":"3875726","CLASSIFICATION_TYPE":"U","PERIOD":"95.437","EPOCH":"2023-03-30T18:16:42.869856","DECAY_DATE":null,"REF_FRAME":"TEME","COUNTRY_CODE":"US","TLE_LINE2":"2 52699  53.2160 284.6881 0001199  75.5687 284.5438 15.08853839 48966","EPHEMERIS_TYPE":"0","CENTER_NAME":"EARTH","TIME_SYSTEM":"UTC","OBJECT_NAME":"STARLINK-3987","OBJECT_ID":"2022-053AV","BSTAR":"0.00139290000000","TLE_LINE1":"1 52699U 22053AV  23089.76160729  .00021958  00000-0  13929-2 0  9994","ARG_OF_PERICENTER":"75.5687","REV_AT_EPOCH":"4896","ELEMENT_SET_NO":"999","PERIAPSIS":"538.874","MEAN_ANOMALY":"284.5438","MEAN_ELEMENT_THEORY":"SGP4","INCLINATION":"53.2160","SITE":"AFETR","ECCENTRICITY":"0.00011990","RCS_SIZE":"LARGE","MEAN_MOTION_DOT":"0.00021958"},{"ECCENTRICITY":"0.00011760","MEAN_MOTION_DOT":"0.00018551","RCS_SIZE":"LARGE","MEAN_ELEMENT_THEORY":"SGP4","SITE":"AFETR","INCLINATION":"53.2149","PERIAPSIS":"538.878","MEAN_ANOMALY":"279.2159","BSTAR":"0.00118000000000","ELEMENT_SET_NO":"999","ARG_OF_PERICENTER":"80.8966","REV_AT_EPOCH":"4882","TLE_LINE1":"1 52700U 22053AW  23089.84259768  .00018551  00000-0  11800-2 0  9999","CENTER_NAME":"EARTH","OBJECT_ID":"2022-053AW","OBJECT_NAME":"STARLINK-4034","TIME_SYSTEM":"UTC","DECAY_DATE":null,"EPOCH":"2023-03-30T20:13:20.439552","CLASSIFICATION_TYPE":"U","PERIOD":"95.436","FILE":"3875726","EPHEMERIS_TYPE":"0","TLE_LINE2":"2 52700  53.2149 294.2999 0001176  80.8966 279.2159 15.08857682 48823","COUNTRY_CODE":"US","REF_FRAME":"TEME","MEAN_MOTION_DDOT":"0.0000000000000","GP_ID":"229185629","RA_OF_ASC_NODE":"294.2999","MEAN_MOTION":"15.08857682","OBJECT_TYPE":"PAYLOAD","LAUNCH_DATE":"2022-05-18","SEMIMAJOR_AXIS":"6917.826","APOAPSIS":"540.505","NORAD_CAT_ID":"52700"},{"PERIAPSIS":"538.787","MEAN_ANOMALY":"281.7399","BSTAR":"0.00057440000000","ARG_OF_PERICENTER":"78.3748","REV_AT_EPOCH":"4903","ELEMENT_SET_NO":"999","TLE_LINE1":"1 52701U 22053AX  23089.74182449  .00008866  00000-0  57440-3 0  9999","ECCENTRICITY":"0.00013740","MEAN_MOTION_DOT":"0.00008866","RCS_SIZE":"LARGE","MEAN_ELEMENT_THEORY":"SGP4","SITE":"AFETR","INCLINATION":"53.2146","GP_ID":"229183900","MEAN_MOTION_DDOT":"0.0000000000000","RA_OF_ASC_NODE":"279.7508","MEAN_MOTION":"15.08842702","OBJECT_TYPE":"PAYLOAD","LAUNCH_DATE":"2022-05-18","APOAPSIS":"540.688","NORAD_CAT_ID":"52701","SEMIMAJOR_AXIS":"6917.872","CENTER_NAME":"EARTH","OBJECT_ID":"2022-053AX","TIME_SYSTEM":"UTC","OBJECT_NAME":"STARLINK-4003","EPOCH":"2023-03-30T17:48:13.635936","DECAY_DATE":null,"FILE":"3875726","CLASSIFICATION_TYPE":"U","PERIOD":"95.437","TLE_LINE2":"2 52701  53.2146 279.7508 0001374  78.3748 281.7399 15.08842702 49030","EPHEMERIS_TYPE":"0","COUNTRY_CODE":"US","REF_FRAME":"TEME"},{"SEMIMAJOR_AXIS":"6917.875","NORAD_CAT_ID":"52702","APOAPSIS":"540.694","LAUNCH_DATE":"2022-05-18","OBJECT_TYPE":"PAYLOAD","RA_OF_ASC_NODE":"294.3414","MEAN_MOTION":"15.08841758","MEAN_MOTION_DDOT":"0.0000000000000","GP_ID":"229184650","COUNTRY_CODE":"US","REF_FRAME":"TEME","EPHEMERIS_TYPE":"0","TLE_LINE2":"2 52702  53.2156 294.3414 0001379  87.8671 272.2479 15.08841758 48826","PERIOD":"95.437","CLASSIFICATION_TYPE":"U","FILE":"3875726","DECAY_DATE":null,"EPOCH":"2023-03-30T20:06:40.599360","OBJECT_NAME":"STARLINK-4033","TIME_SYSTEM":"UTC","OBJECT_ID":"2022-053AY","CENTER_NAME":"EARTH","TLE_LINE1":"1 52702U 22053AY  23089.83796990  .00006828  00000-0  44663-3 0  9991","ELEMENT_SET_NO":"999","ARG_OF_PERICENTER":"87.8671","REV_AT_EPOCH":"4882","BSTAR":"0.00044663000000","MEAN_ANOMALY":"272.2479","PERIAPSIS":"538.786","INCLINATION":"53.2156","SITE":"AFETR","MEAN_ELEMENT_THEORY":"SGP4","RCS_SIZE":"LARGE","MEAN_MOTION_DOT":"0.00006828","ECCENTRICITY":"0.00013790"},{"DECAY_DATE":null,"EPOCH":"2023-03-30T19:07:42.900384","PERIOD":"95.437","CLASSIFICATION_TYPE":"U","FILE":"3875726","EPHEMERIS_TYPE":"0","TLE_LINE2":"2 52703  53.2162 279.5064 0001192  75.8698 284.2427 15.08848423 47763","COUNTRY_CODE":"US","REF_FRAME":"TEME","CENTER_NAME":"EARTH","OBJECT_ID":"2022-053AZ","OBJECT_NAME":"STARLINK-4020","TIME_SYSTEM":"UTC","LAUNCH_DATE":"2022-05-18","SEMIMAJOR_AXIS":"6917.855","NORAD_CAT_ID":"52703","APOAPSIS":"540.544","MEAN_MOTION_DDOT":"0.0000000000000","GP_ID":"229184901","RA_OF_ASC_NODE":"279.5064","MEAN_MOTION":"15.08848423","OBJECT_TYPE":"PAYLOAD","MEAN_ELEMENT_THEORY":"SGP4","SITE":"AFETR","INCLINATION":"53.2162","ECCENTRICITY":"0.00011920","MEAN_MOTION_DOT":"0.00001273","RCS_SIZE":"LARGE","BSTAR":"0.00009804000000","ELEMENT_SET_NO":"999","ARG_OF_PERICENTER":"75.8698","REV_AT_EPOCH":"4776","TLE_LINE1":"1 52703U 22053AZ  23089.79702431  .00001273  00000-0  98040-4 0  9992","PERIAPSIS":"538.895","MEAN_ANOMALY":"284.2427"},{"RCS_SIZE":"LARGE","MEAN_MOTION_DOT":"0.00005650","ECCENTRICITY":"0.00010390","INCLINATION":"53.2149","SITE":"AFETR","MEAN_ELEMENT_THEORY":"SGP4","MEAN_ANOMALY":"272.3429","PERIAPSIS":"538.933","TLE_LINE1":"1 52704U 22053BA  23089.74548590  .00005650  00000-0  37249-3 0  9998","ARG_OF_PERICENTER":"87.7682","REV_AT_EPOCH":"4903","ELEMENT_SET_NO":"999","BSTAR":"0.00037249000000","TIME_SYSTEM":"UTC","OBJECT_NAME":"STARLINK-3999","OBJECT_ID":"2022-053BA","CENTER_NAME":"EARTH","COUNTRY_CODE":"US","REF_FRAME":"TEME","TLE_LINE2":"2 52704  53.2149 279.7339 0001039  87.7682 272.3429 15.08870746 49036","EPHEMERIS_TYPE":"0","FILE":"3875726","PERIOD":"95.436","CLASSIFICATION_TYPE":"U","EPOCH":"2023-03-30T17:53:29.981760","DECAY_DATE":null,"OBJECT_TYPE":"PAYLOAD","RA_OF_ASC_NODE":"279.7339","MEAN_MOTION":"15.08870746","GP_ID":"229185130","MEAN_MOTION_DDOT":"0.0000000000000","NORAD_CAT_ID":"52704","APOAPSIS":"540.370","SEMIMAJOR_AXIS":"6917.786","LAUNCH_DATE":"2022-05-18"},{"TLE_LINE2":"2 52705  53.2156 279.4776 0001265  73.4452 286.6679 15.08852645 49049","EPHEMERIS_TYPE":"0","COUNTRY_CODE":"US","REF_FRAME":"TEME","EPOCH":"2023-03-30T19:13:00.692544","DECAY_DATE":null,"FILE":"3875726","PERIOD":"95.437","CLASSIFICATION_TYPE":"U","OBJECT_ID":"2022-053BB","TIME_SYSTEM":"UTC","OBJECT_NAME":"STARLINK-3844","CENTER_NAME":"EARTH","LAUNCH_DATE":"2022-05-18","APOAPSIS":"540.582","NORAD_CAT_ID":"52705","SEMIMAJOR_AXIS":"6917.842","RA_OF_ASC_NODE":"279.4776","MEAN_MOTION":"15.08852645","OBJECT_TYPE":"PAYLOAD","GP_ID":"229184400","MEAN_MOTION_DDOT":"0.0000000000000","SITE":"AFETR","INCLINATION":"53.2156","MEAN_ELEMENT_THEORY":"SGP4","MEAN_MOTION_DOT":"0.00012330","RCS_SIZE":"LARGE","ECCENTRICITY":"0.00012650","ARG_OF_PERICENTER":"73.4452","REV_AT_EPOCH":"4904","ELEMENT_SET_NO":"999","TLE_LINE1":"1 52705U 22053BB  23089.80070246  .00012330  00000-0  79117-3 0  9997","BSTAR":"0.00079117000000","MEAN_ANOMALY":"286.6679","PERIAPSIS":"538.832"},{"BSTAR":"0.00030662000000","TLE_LINE1":"1 52706U 22053BC  23089.73814656  .00004596  00000-0  30662-3 0  9998","ARG_OF_PERICENTER":"76.7180","REV_AT_EPOCH":"4903","ELEMENT_SET_NO":"999","PERIAPSIS":"538.896","MEAN_ANOMALY":"283.3946","MEAN_ELEMENT_THEORY":"SGP4","INCLINATION":"53.2142","SITE":"AFETR","ECCENTRICITY":"0.00012010","RCS_SIZE":"LARGE","MEAN_MOTION_DOT":"0.00004596","NORAD_CAT_ID":"52706","APOAPSIS":"540.558","SEMIMAJOR_AXIS":"6917.862","LAUNCH_DATE":"2022-05-18","GP_ID":"229184151","MEAN_MOTION_DDOT":"0.0000000000000","OBJECT_TYPE":"PAYLOAD","RA_OF_ASC_NODE":"279.7612","MEAN_MOTION":"15.08845978","FILE":"3875726","CLASSIFICATION_TYPE":"U","PERIOD":"95.437","EPOCH":"2023-03-30T17:42:55.862784","DECAY_DATE":null,"REF_FRAME":"TEME","COUNTRY_CODE":"US","TLE_LINE2":"2 52706  53.2142 279.7612 0001201  76.7180 283.3946 15.08845978 49032","EPHEMERIS_TYPE":"0","CENTER_NAME":"EARTH","TIME_SYSTEM":"UTC","OBJECT_NAME":"STARLINK-3970","OBJECT_ID":"2022-053BC"},{"MEAN_MOTION_DDOT":"0.0000000000000","GP_ID":"229185401","OBJECT_TYPE":"PAYLOAD","RA_OF_ASC_NODE":"279.4734","MEAN_MOTION":"15.08846502","SEMIMAJOR_AXIS":"6917.861","NORAD_CAT_ID":"52707","APOAPSIS":"540.605","LAUNCH_DATE":"2022-05-18","CENTER_NAME":"EARTH","OBJECT_NAME":"STARLINK-4007","TIME_SYSTEM":"UTC","OBJECT_ID":"2022-053BD","PERIOD":"95.437","CLASSIFICATION_TYPE":"U","FILE":"3875726","DECAY_DATE":null,"EPOCH":"2023-03-30T18:53:10.898880","REF_FRAME":"TEME","COUNTRY_CODE":"US","EPHEMERIS_TYPE":"0","TLE_LINE2":"2 52707  53.2142 279.4734 0001271  84.3942 275.7195 15.08846502 49106","PERIAPSIS":"538.846","MEAN_ANOMALY":"275.7195","BSTAR":"0.00107780000000","TLE_LINE1":"1 52707U 22053BD  23089.78693170  .00016910  00000-0  10778-2 0  9998","ELEMENT_SET_NO":"999","ARG_OF_PERICENTER":"84.3942","REV_AT_EPOCH":"4910","ECCENTRICITY":"0.00012710","RCS_SIZE":"LARGE","MEAN_MOTION_DOT":"0.00016910","MEAN_ELEMENT_THEORY":"SGP4","INCLINATION":"53.2142","SITE":"AFETR"},{"ECCENTRICITY":"0.00013990","RCS_SIZE":"LARGE","MEAN_MOTION_DOT":"0.00008374","MEAN_ELEMENT_THEORY":"SGP4","INCLINATION":"53.2161","SITE":"AFETR","PERIAPSIS":"538.770","MEAN_ANOMALY":"261.9596","BSTAR":"0.00054358000000","TLE_LINE1":"1 52708U 22053BE  23089.76022345  .00008374  00000-0  54358-3 0  9995","REV_AT_EPOCH":"4924","ARG_OF_PERICENTER":"98.1555","ELEMENT_SET_NO":"999","CENTER_NAME":"EARTH","TIME_SYSTEM":"UTC","OBJECT_NAME":"STARLINK-3962","OBJECT_ID":"2022-053BE","FILE":"3875726","PERIOD":"95.437","CLASSIFICATION_TYPE":"U","EPOCH":"2023-03-30T18:14:43.306080","DECAY_DATE":null,"REF_FRAME":"TEME","COUNTRY_CODE":"US","TLE_LINE2":"2 52708  53.2161 279.6571 0001399  98.1555 261.9596 15.08842408 49241","EPHEMERIS_TYPE":"0","GP_ID":"229185630","MEAN_MOTION_DDOT":"0.0000000000000","OBJECT_TYPE":"PAYLOAD","RA_OF_ASC_NODE":"279.6571","MEAN_MOTION":"15.08842408","NORAD_CAT_ID":"52708","APOAPSIS":"540.706","SEMIMAJOR_AXIS":"6917.873","LAUNCH_DATE":"2022-05-18"}];
